NORAD_CAT_ID,OBJECT_NAME,OBJECT_TYPE,EPOCH,MEAN_MOTION,ECCENTRICITY,INCLINATION,RA_OF_ASC_NODE,ARG_OF_PERICENTER,MEAN_ANOMALY,BSTAR,MEAN_MOTION_DOT,MEAN_MOTION_DDOT,TLE_LINE0,TLE_LINE1,TLE_LINE2,SEMIMAJOR_AXIS,PERIOD,APOGEE,PERIGEE,DECAYED
54074.0,STARLINK-5192,PAYLOAD,2024-04-29 08:37:58,15.0882639,0.0001482,53.2159,153.3683,96.6877,263.4284,-8.8126e-05,-1.69e-05,0.0,0 STARLINK-5192,1 54074U 22136Z   24120.35970264 -.00001690  00000-0 -88126-4 0  9996,2 54074  53.2159 153.3683 0001482  96.6877 263.4284 15.08826390 84771,6917.922,95.438,540.812,538.762,0.0
54074.0,STARLINK-5192,PAYLOAD,2024-04-29 19:45:40,15.0882766,0.000153,53.216,151.2866,133.7539,226.358,-2.7512e-05,-7.26e-06,0.0,0 STARLINK-5192,1 54074U 22136Z   24120.82338191 -.00000726  00000-0 -27512-4 0  9996,2 54074  53.2160 151.2866 0001530 133.7539 226.3580 15.08827660 84368,6917.918,95.438,540.842,538.725,0.0
54074.0,STARLINK-5192,PAYLOAD,2024-04-30 08:28:46,15.08838278,0.0001411,53.2153,148.9073,105.7994,254.3154,0.00070945,0.0001102,0.0,0 STARLINK-5192,1 54074U 22136Z   24121.35331066  .00011020  00000-0  70945-3 0  9993,2 54074  53.2153 148.9073 0001411 105.7994 254.3154 15.08838278 84922,6917.886,95.438,540.727,538.775,0.0
54074.0,STARLINK-5192,PAYLOAD,2024-05-01 11:30:18,15.08870223,0.0001353,53.2159,143.8521,103.3736,256.7407,0.00066173,0.00010268,0.0,0 STARLINK-5192,1 54074U 22136Z   24122.47937529  .00010268  00000-0  66173-3 0  9994,2 54074  53.2159 143.8521 0001353 103.3736 256.7407 15.08870223 85095,6917.788,95.436,540.589,538.717,0.0
54074.0,STARLINK-5192,PAYLOAD,2024-05-01 17:51:50,15.08873614,0.0001341,53.216,142.6626,103.3426,256.7716,0.00062521,9.685e-05,0.0,0 STARLINK-5192,1 54074U 22136Z   24122.74432986  .00009685  00000-0  62521-3 0  9995,2 54074  53.2160 142.6626 0001341 103.3426 256.7716 15.08873614 84654,6917.778,95.435,540.57,538.715,0.0
54074.0,STARLINK-5192,PAYLOAD,2024-05-02 04:59:32,15.0885227,0.0001276,53.2161,140.5816,97.0823,263.0314,-2.7964e-05,-7.33e-06,0.0,0 STARLINK-5192,1 54074U 22136Z   24123.20801078 -.00000733  00000-0 -27964-4 0  9999,2 54074  53.2161 140.5816 0001276  97.0823 263.0314 15.08852270 85202,6917.843,95.437,540.591,538.825,0.0
54074.0,STARLINK-5192,PAYLOAD,2024-05-02 08:10:18,15.08845111,0.0001294,53.2153,139.9856,99.9062,260.2076,-0.00021064,-3.639e-05,0.0,0 STARLINK-5192,1 54074U 22136Z   24123.34049158 -.00003639  00000-0 -21064-3 0  9999,2 54074  53.2153 139.9856 0001294  99.9062 260.2076 15.08845111 84743,6917.865,95.437,540.625,538.835,0.0
54074.0,STARLINK-5192,PAYLOAD,2024-05-02 17:42:37,15.08832427,0.000123,53.2141,138.2012,96.4451,263.6681,-0.00032339,-5.43e-05,0.0,0 STARLINK-5192,1 54074U 22136Z   24123.73793713 -.00005430  00000-0 -32339-3 0  9993,2 54074  53.2141 138.2012 0001230  96.4451 263.6681 15.08832427 85285,6917.904,95.438,540.619,538.918,0.0
54074.0,STARLINK-5192,PAYLOAD,2024-05-03 11:11:52,15.08836401,0.0001228,53.2139,134.93,96.8973,263.2159,-0.00011899,-2.181e-05,0.0,0 STARLINK-5192,1 54074U 22136Z   24124.46658113 -.00002181  00000-0 -11899-3 0  9996,2 54074  53.2139 134.9300 0001228  96.8973 263.2159 15.08836401 84916,6917.891,95.438,540.606,538.907,0.0
54074.0,STARLINK-5192,PAYLOAD,2024-05-04 17:24:12,15.08840589,0.0001355,53.2149,129.281,100.4541,259.6604,0.00030039,4.496e-05,0.0,0 STARLINK-5192,1 54074U 22136Z   24125.72514519  .00004496  00000-0  30039-3 0  9993,2 54074  53.2149 129.2810 0001355 100.4541 259.6604 15.08840589 85584,6917.879,95.438,540.681,538.806,0.0
54074.0,STARLINK-5192,PAYLOAD,2024-05-05 09:18:03,15.08852922,0.0001377,53.2149,126.3075,100.3259,259.7888,0.00038342,5.822e-05,0.0,0 STARLINK-5192,1 54074U 22136Z   24126.38754031  .00005822  00000-0  38342-3 0  9990,2 54074  53.2149 126.3075 0001377 100.3259 259.7888 15.08852922 85202,6917.841,95.437,540.658,538.753,0.0
54074.0,STARLINK-5192,PAYLOAD,2024-05-06 05:58:03,15.0887191,0.0001303,53.2138,122.441,103.3285,256.7853,0.00057351,8.859e-05,0.0,0 STARLINK-5192,1 54074U 22136Z   24127.24864616  .00008859  00000-0  57351-3 0  9991,2 54074  53.2138 122.4410 0001303 103.3285 256.7853 15.08871910 85815,6917.783,95.436,540.549,538.746,0.0
54074.0,STARLINK-5192,PAYLOAD,2024-05-06 09:08:48,15.08894235,0.000153,53.2147,121.8462,97.8253,262.2913,0.001111,0.00017464,0.0,0 STARLINK-5192,1 54074U 22136Z   24127.38111970  .00017464  00000-0  11110-2 0  9998,2 54074  53.2147 121.8462 0001530  97.8253 262.2913 15.08894235 85835,6917.715,95.434,540.638,538.521,0.0
54074.0,STARLINK-5192,PAYLOAD,2024-05-06 17:05:43,15.08898887,0.0001254,53.2133,120.3575,91.3785,268.7351,0.00097716,0.00015323,0.0,0 STARLINK-5192,1 54074U 22136Z   24127.71230780  .00015323  00000-0  97716-3 0  9995,2 54074  53.2133 120.3575 0001254  91.3785 268.7351 15.08898887 85408,6917.7,95.434,540.433,538.698,0.0
54074.0,STARLINK-5192,PAYLOAD,2024-05-07 05:48:48,15.08845978,0.0001532,53.2152,117.9805,84.5559,275.5608,-0.00049622,-8.178e-05,0.0,0 STARLINK-5192,1 54074U 22136Z   24128.24223163 -.00008178  00000-0 -49622-3 0  9996,2 54074  53.2152 117.9805 0001532  84.5559 275.5608 15.08845978 85964,6917.862,95.437,540.787,538.667,0.0
54074.0,STARLINK-5192,PAYLOAD,2024-05-07 08:59:35,15.08848794,0.0001521,53.2148,117.3854,88.4419,271.6747,-0.00020695,-3.581e-05,0.0,0 STARLINK-5192,1 54074U 22136Z   24128.37471317 -.00003581  00000-0 -20695-3 0  9998,2 54074  53.2148 117.3854 0001521  88.4419 271.6747 15.08848794 85503,6917.854,95.437,540.771,538.666,0.0
54074.0,STARLINK-5192,PAYLOAD,2024-05-08 05:39:37,15.0882967,0.0001684,53.2157,113.5179,88.2101,271.9084,-0.00042927,-7.112e-05,0.0,0 STARLINK-5192,1 54074U 22136Z   24129.23584516 -.00007112  00000-0 -42927-3 0  9996,2 54074  53.2157 113.5179 0001684  88.2101 271.9084 15.08829670 86114,6917.912,95.438,540.942,538.612,0.0
54074.0,STARLINK-5192,PAYLOAD,2024-05-08 08:50:23,15.08833531,0.0001659,53.2162,112.9237,90.3094,269.8088,-0.00042629,-7.065e-05,0.0,0 STARLINK-5192,1 54074U 22136Z   24129.36832766 -.00007065  00000-0 -42629-3 0  9999,2 54074  53.2162 112.9237 0001659  90.3094 269.8088 15.08833531 85654,6917.9,95.438,540.913,538.617,0.0
54074.0,STARLINK-5192,PAYLOAD,2024-05-09 05:30:25,15.08832642,0.0001651,53.2162,109.059,85.0002,275.1179,0.00030021,4.492e-05,0.0,0 STARLINK-5192,1 54074U 22136Z   24130.22945683  .00004492  00000-0  30021-3 0  9991,2 54074  53.2162 109.0590 0001651  85.0002 275.1179 15.08832642 86266,6917.903,95.438,540.91,538.626,0.0
54074.0,STARLINK-5192,PAYLOAD,2024-05-09 15:02:43,15.08850333,0.0001937,53.2162,107.2758,90.2168,269.9046,0.00045072,6.894e-05,0.0,0 STARLINK-5192,1 54074U 22136Z   24130.62688779  .00006894  00000-0  45072-3 0  9995,2 54074  53.2162 107.2758 0001937  90.2168 269.9046 15.08850333 86328,6917.849,95.437,541.054,538.374,0.0
54074.0,STARLINK-5192,PAYLOAD,2024-05-09 22:59:39,15.0883086,0.0001845,53.2177,105.7893,95.2446,264.8757,0.00025826,3.824e-05,0.0,0 STARLINK-5192,1 54074U 22136Z   24130.95810135  .00003824  00000-0  25826-3 0  9999,2 54074  53.2177 105.7893 0001845  95.2446 264.8757 15.08830860 85896,6917.908,95.438,541.05,538.497,0.0
54074.0,STARLINK-5192,PAYLOAD,2024-05-10 05:21:12,15.08838851,0.0001643,53.217,104.6001,96.9819,263.136,0.00024404,3.598e-05,0.0,0 STARLINK-5192,1 54074U 22136Z   24131.22305860  .00003598  00000-0  24404-3 0  9993,2 54074  53.2170 104.6001 0001643  96.9819 263.1360 15.08838851 86415,6917.884,95.438,540.886,538.612,0.0
54074.0,STARLINK-5192,PAYLOAD,2024-05-10 08:31:58,15.0884342,0.0001625,53.2166,104.005,97.638,262.4797,0.00028805,4.3e-05,0.0,0 STARLINK-5192,1 54074U 22136Z   24131.35553730  .00004300  00000-0  28805-3 0  9999,2 54074  53.2166 104.0050 0001625  97.6380 262.4797 15.08843420 85951,6917.87,95.437,540.859,538.611,0.0
54074.0,STARLINK-5192,PAYLOAD,2024-05-10 14:53:30,15.08851207,0.0001603,53.2171,102.8158,98.6914,261.4259,0.00056157,8.663e-05,0.0,0 STARLINK-5192,1 54074U 22136Z   24131.62049586  .00008663  00000-0  56157-3 0  9995,2 54074  53.2171 102.8158 0001603  98.6914 261.4259 15.08851207 85990,6917.846,95.437,540.82,538.602,0.0
54074.0,STARLINK-5192,PAYLOAD,2024-05-11 08:22:45,15.08867902,0.0002026,53.2167,99.5446,92.9904,267.132,0.0012732,0.00020049,0.0,0 STARLINK-5192,1 54074U 22136Z   24132.34913800  .00020049  00000-0  12732-2 0  9996,2 54074  53.2167  99.5446 0002026  92.9904 267.1320 15.08867902 86580,6917.795,95.436,541.062,538.259,0.0
54074.0,STARLINK-5192,PAYLOAD,2024-05-11 14:44:16,15.08916335,0.0001862,53.2197,98.3558,64.2863,295.8322,0.0024817,0.00039513,0.0,0 STARLINK-5192,1 54074U 22136Z   24132.61407911  .00039513  00000-0  24817-2 0  9990,2 54074  53.2197  98.3558 0001862  64.2863 295.8322 15.08916335 86627,6917.647,95.433,540.8,538.224,0.0
54074.0,STARLINK-5192,PAYLOAD,2024-05-12 05:02:46,15.08756166,0.0001493,53.2168,95.6797,103.6414,256.4744,-0.0038148,-0.00060354,0.0,0 STARLINK-5192,1 54074U 22136Z   24133.21025674 -.00060354  00000-0 -38148-2 0  9990,2 54074  53.2168  95.6797 0001493 103.6414 256.4744 15.08756166 86715,6918.137,95.443,541.035,538.969,0.0
54074.0,STARLINK-5192,PAYLOAD,2024-05-12 20:56:40,15.08752981,0.0001199,53.217,92.7086,89.2038,270.9092,-0.00035387,-5.902e-05,0.0,0 STARLINK-5192,1 54074U 22136Z   24133.87269589 -.00005902  00000-0 -35387-3 0  9998,2 54074  53.2170  92.7086 0001199  89.2038 270.9092 15.08752981 86810,6918.146,95.443,540.841,539.182,0.0
54074.0,STARLINK-5192,PAYLOAD,2024-05-13 04:53:37,15.08831286,0.0001904,53.2169,91.2184,113.0443,247.075,0.0016122,0.00025457,0.0,0 STARLINK-5192,1 54074U 22136Z   24134.20390401  .00025457  00000-0  16122-2 0  9994,2 54074  53.2169  91.2184 0001904 113.0443 247.0750 15.08831286 86868,6917.907,95.438,541.089,538.455,0.0
54074.0,STARLINK-5192,PAYLOAD,2024-05-13 20:47:28,15.08850546,0.0001731,53.217,88.2454,112.0216,248.096,0.00083059,0.00012959,0.0,0 STARLINK-5192,1 54074U 22136Z   24134.86630157  .00012959  00000-0  83059-3 0  9998,2 54074  53.2170  88.2454 0001731 112.0216 248.0960 15.08850546 86483,6917.848,95.437,540.911,538.516,0.0
